start=new Date('2022-11-11T00:00:00.000Z').valueOf();
sats=[{"RA_OF_ASC_NODE":"194.1102","PERIAPSIS":"561.399","ELEMENT_SET_NO":"999","TIME_SYSTEM":"UTC","DECAY_DATE":null,"TLE_LINE2":"2 53682  97.6519 194.1102 0002370 129.7712 219.4973 15.01249615  1305","TLE_LINE1":"1 53682U 22105AL  22314.91667824 -.00038600  00000-0 -30178-2 0  9999","NORAD_CAT_ID":"53682","SEMIMAJOR_AXIS":"6941.179","CENTER_NAME":"EARTH","INCLINATION":"97.6519","EPHEMERIS_TYPE":"0","MEAN_ANOMALY":"219.4973","REF_FRAME":"TEME","PERIOD":"95.920","EPOCH":"2022-11-10T22:00:00.999936","MEAN_ELEMENT_THEORY":"SGP4","CLASSIFICATION_TYPE":"U","REV_AT_EPOCH":"130","OBJECT_TYPE":"PAYLOAD","BSTAR":"-0.00301780000000","FILE":"3650843","SITE":"AFWTR","RCS_SIZE":"LARGE","OBJECT_NAME":"STARLINK-4438","LAUNCH_DATE":"2022-08-31","GP_ID":"217373248","MEAN_MOTION_DDOT":"0.0000000000000","OBJECT_ID":"2022-105AL","MEAN_MOTION_DOT":"-0.00038600","MEAN_MOTION":"15.01249615","ECCENTRICITY":"0.00023700","APOAPSIS":"564.689","ARG_OF_PERICENTER":"129.7712","COUNTRY_CODE":"US"},{"RA_OF_ASC_NODE":"194.1096","ELEMENT_SET_NO":"999","TIME_SYSTEM":"UTC","PERIAPSIS":"561.475","DECAY_DATE":null,"TLE_LINE2":"2 53683  97.6521 194.1096 0002310 118.7239 201.8152 15.01238252  1306","EPHEMERIS_TYPE":"0","NORAD_CAT_ID":"53683","TLE_LINE1":"1 53683U 22105AM  22314.91667824  .00003753  00000-0  29679-3 0  9994","SEMIMAJOR_AXIS":"6941.214","INCLINATION":"97.6521","CENTER_NAME":"EARTH","MEAN_ANOMALY":"201.8152","REF_FRAME":"TEME","PERIOD":"95.921","EPOCH":"2022-11-10T22:00:00.999936","MEAN_ELEMENT_THEORY":"SGP4","CLASSIFICATION_TYPE":"U","REV_AT_EPOCH":"130","FILE":"3650843","OBJECT_TYPE":"PAYLOAD","BSTAR":"0.00029679000000","RCS_SIZE":"LARGE","SITE":"AFWTR","GP_ID":"217372659","MEAN_MOTION_DOT":"0.00003753","MEAN_MOTION_DDOT":"0.0000000000000","OBJECT_ID":"2022-105AM","OBJECT_NAME":"STARLINK-4625","LAUNCH_DATE":"2022-08-31","MEAN_MOTION":"15.01238252","ECCENTRICITY":"0.00023100","APOAPSIS":"564.682","ARG_OF_PERICENTER":"118.7239","COUNTRY_CODE":"US"},{"MEAN_ANOMALY":"322.5265","PERIOD":"95.922","REF_FRAME":"TEME","EPOCH":"2022-11-10T22:00:00.999936","MEAN_ELEMENT_THEORY":"SGP4","TLE_LINE2":"2 53684  97.6537 194.1024 0001815 106.6583 322.5265 15.01222754  1308","SEMIMAJOR_AXIS":"6941.262","INCLINATION":"97.6537","CENTER_NAME":"EARTH","TLE_LINE1":"1 53684U 22105AN  22314.91667824  .00007241  00000-0  56833-3 0  9993","NORAD_CAT_ID":"53684","EPHEMERIS_TYPE":"0","PERIAPSIS":"561.867","TIME_SYSTEM":"UTC","ELEMENT_SET_NO":"999","DECAY_DATE":null,"RA_OF_ASC_NODE":"194.1024","APOAPSIS":"564.386","ECCENTRICITY":"0.00018150","COUNTRY_CODE":"US","ARG_OF_PERICENTER":"106.6583","MEAN_MOTION":"15.01222754","SITE":"AFWTR","RCS_SIZE":"LARGE","LAUNCH_DATE":"2022-08-31","OBJECT_NAME":"STARLINK-4624","OBJECT_ID":"2022-105AN","GP_ID":"217373666","MEAN_MOTION_DDOT":"0.0000000000000","MEAN_MOTION_DOT":"0.00007241","REV_AT_EPOCH":"130","CLASSIFICATION_TYPE":"U","BSTAR":"0.00056833000000","OBJECT_TYPE":"PAYLOAD","FILE":"3650843"},{"DECAY_DATE":null,"PERIAPSIS":"561.562","ELEMENT_SET_NO":"999","TIME_SYSTEM":"UTC","RA_OF_ASC_NODE":"194.1098","REF_FRAME":"TEME","PERIOD":"95.920","MEAN_ELEMENT_THEORY":"SGP4","EPOCH":"2022-11-10T22:00:00.999936","MEAN_ANOMALY":"210.8631","TLE_LINE1":"1 53685U 22105AP  22314.91667824  .00004449  00000-0  35083-3 0  9995","NORAD_CAT_ID":"53685","SEMIMAJOR_AXIS":"6941.173","CENTER_NAME":"EARTH","INCLINATION":"97.6528","EPHEMERIS_TYPE":"0","TLE_LINE2":"2 53685  97.6528 194.1098 0002126 129.6470 210.8631 15.01251635  1302","OBJECT_NAME":"STARLINK-4626","LAUNCH_DATE":"2022-08-31","GP_ID":"217372911","MEAN_MOTION_DOT":"0.00004449","MEAN_MOTION_DDOT":"0.0000000000000","OBJECT_ID":"2022-105AP","SITE":"AFWTR","RCS_SIZE":"LARGE","OBJECT_TYPE":"PAYLOAD","BSTAR":"0.00035083000000","FILE":"3650843","CLASSIFICATION_TYPE":"U","REV_AT_EPOCH":"130","ARG_OF_PERICENTER":"129.6470","COUNTRY_CODE":"US","ECCENTRICITY":"0.00021260","APOAPSIS":"564.513","MEAN_MOTION":"15.01251635"},{"APOAPSIS":"564.607","ECCENTRICITY":"0.00022390","COUNTRY_CODE":"US","ARG_OF_PERICENTER":"134.2252","MEAN_MOTION":"15.01246586","RCS_SIZE":"LARGE","SITE":"AFWTR","GP_ID":"217373510","OBJECT_ID":"2022-105AQ","MEAN_MOTION_DDOT":"0.0000000000000","MEAN_MOTION_DOT":"0.00004858","LAUNCH_DATE":"2022-08-31","OBJECT_NAME":"STARLINK-4467","REV_AT_EPOCH":"131","CLASSIFICATION_TYPE":"U","FILE":"3650843","BSTAR":"0.00038266000000","OBJECT_TYPE":"PAYLOAD","MEAN_ANOMALY":"226.2504","PERIOD":"95.920","MEAN_ELEMENT_THEORY":"SGP4","REF_FRAME":"TEME","EPOCH":"2022-11-10T22:00:00.999936","TLE_LINE2":"2 53686  97.6524 194.1098 0002239 134.2252 226.2504 15.01246586  1314","EPHEMERIS_TYPE":"0","INCLINATION":"97.6524","SEMIMAJOR_AXIS":"6941.188","CENTER_NAME":"EARTH","TLE_LINE1":"1 53686U 22105AQ  22314.91667824  .00004858  00000-0  38266-3 0  9996","NORAD_CAT_ID":"53686","TIME_SYSTEM":"UTC","ELEMENT_SET_NO":"999","PERIAPSIS":"561.499","DECAY_DATE":null,"RA_OF_ASC_NODE":"194.1098"},{"MEAN_ANOMALY":"218.3289","PERIOD":"95.921","EPOCH":"2022-11-10T22:00:00.999936","REF_FRAME":"TEME","MEAN_ELEMENT_THEORY":"SGP4","TLE_LINE2":"2 53687  97.6522 194.1099 0002231 132.2341 218.3289 15.01230400  1302","NORAD_CAT_ID":"53687","TLE_LINE1":"1 53687U 22105AR  22314.91667824  .00004863  00000-0  38323-3 0  9997","INCLINATION":"97.6522","SEMIMAJOR_AXIS":"6941.238","CENTER_NAME":"EARTH","EPHEMERIS_TYPE":"0","PERIAPSIS":"561.554","ELEMENT_SET_NO":"999","TIME_SYSTEM":"UTC","DECAY_DATE":null,"RA_OF_ASC_NODE":"194.1099","ECCENTRICITY":"0.00022310","APOAPSIS":"564.652","ARG_OF_PERICENTER":"132.2341","COUNTRY_CODE":"US","MEAN_MOTION":"15.01230400","SITE":"AFWTR","RCS_SIZE":"LARGE","OBJECT_NAME":"STARLINK-4569","LAUNCH_DATE":"2022-08-31","GP_ID":"217373077","MEAN_MOTION_DDOT":"0.0000000000000","MEAN_MOTION_DOT":"0.00004863","OBJECT_ID":"2022-105AR","CLASSIFICATION_TYPE":"U","REV_AT_EPOCH":"130","OBJECT_TYPE":"PAYLOAD","BSTAR":"0.00038323000000","FILE":"3650843"},{"GP_ID":"217373405","MEAN_MOTION_DDOT":"0.0000000000000","MEAN_MOTION_DOT":"0.00004461","OBJECT_ID":"2022-105AS","OBJECT_NAME":"STARLINK-4571","LAUNCH_DATE":"2022-08-31","RCS_SIZE":"LARGE","SITE":"AFWTR","FILE":"3650843","OBJECT_TYPE":"PAYLOAD","BSTAR":"0.00035200000000","CLASSIFICATION_TYPE":"U","REV_AT_EPOCH":"130","ARG_OF_PERICENTER":"132.1799","COUNTRY_CODE":"US","ECCENTRICITY":"0.00022110","APOAPSIS":"564.662","MEAN_MOTION":"15.01222444","DECAY_DATE":null,"ELEMENT_SET_NO":"999","TIME_SYSTEM":"UTC","PERIAPSIS":"561.593","RA_OF_ASC_NODE":"194.1097","REF_FRAME":"TEME","PERIOD":"95.922","EPOCH":"2022-11-10T22:00:00.999936","MEAN_ELEMENT_THEORY":"SGP4","MEAN_ANOMALY":"248.3452","EPHEMERIS_TYPE":"0","NORAD_CAT_ID":"53688","TLE_LINE1":"1 53688U 22105AS  22314.91667824  .00004461  00000-0  35200-3 0  9993","INCLINATION":"97.6523","SEMIMAJOR_AXIS":"6941.263","CENTER_NAME":"EARTH","TLE_LINE2":"2 53688  97.6523 194.1097 0002211 132.1799 248.3452 15.01222444  1300"},{"TLE_LINE2":"2 53689  97.6529 194.1100 0002324 138.4262 232.0784 15.01237134  1301","NORAD_CAT_ID":"53689","TLE_LINE1":"1 53689U 22105AT  22314.91667824  .00005105  00000-0  40200-3 0  9996","INCLINATION":"97.6529","SEMIMAJOR_AXIS":"6941.217","CENTER_NAME":"EARTH","EPHEMERIS_TYPE":"0","MEAN_ANOMALY":"232.0784","PERIOD":"95.921","EPOCH":"2022-11-10T22:00:00.999936","MEAN_ELEMENT_THEORY":"SGP4","REF_FRAME":"TEME","RA_OF_ASC_NODE":"194.1100","PERIAPSIS":"561.469","ELEMENT_SET_NO":"999","TIME_SYSTEM":"UTC","DECAY_DATE":null,"MEAN_MOTION":"15.01237134","ECCENTRICITY":"0.00023240","APOAPSIS":"564.695","ARG_OF_PERICENTER":"138.4262","COUNTRY_CODE":"US","CLASSIFICATION_TYPE":"U","REV_AT_EPOCH":"130","OBJECT_TYPE":"PAYLOAD","BSTAR":"0.00040200000000","FILE":"3650843","SITE":"AFWTR","RCS_SIZE":"LARGE","OBJECT_NAME":"STARLINK-4562","LAUNCH_DATE":"2022-08-31","MEAN_MOTION_DOT":"0.00005105","GP_ID":"217372495","MEAN_MOTION_DDOT":"0.0000000000000","OBJECT_ID":"2022-105AT"},{"ECCENTRICITY":"0.00018770","APOAPSIS":"564.343","ARG_OF_PERICENTER":"114.4473","COUNTRY_CODE":"US","MEAN_MOTION":"15.01250713","SITE":"AFWTR","RCS_SIZE":"LARGE","OBJECT_NAME":"STARLINK-4570","LAUNCH_DATE":"2022-08-31","MEAN_MOTION_DDOT":"0.0000000000000","GP_ID":"217373249","OBJECT_ID":"2022-105AU","MEAN_MOTION_DOT":"0.00006280","CLASSIFICATION_TYPE":"U","REV_AT_EPOCH":"130","OBJECT_TYPE":"PAYLOAD","BSTAR":"0.00049318000000","FILE":"3650843","MEAN_ANOMALY":"276.0957","PERIOD":"95.920","MEAN_ELEMENT_THEORY":"SGP4","REF_FRAME":"TEME","EPOCH":"2022-11-10T22:00:00.999936","TLE_LINE2":"2 53690  97.6523 194.1090 0001877 114.4473 276.0957 15.01250713  1303","NORAD_CAT_ID":"53690","TLE_LINE1":"1 53690U 22105AU  22314.91667824  .00006280  00000-0  49318-3 0  9992","INCLINATION":"97.6523","SEMIMAJOR_AXIS":"6941.175","CENTER_NAME":"EARTH","EPHEMERIS_TYPE":"0","PERIAPSIS":"561.738","ELEMENT_SET_NO":"999","TIME_SYSTEM":"UTC","DECAY_DATE":null,"RA_OF_ASC_NODE":"194.1090"},{"REV_AT_EPOCH":"130","CLASSIFICATION_TYPE":"U","FILE":"3650843","BSTAR":"0.00051841000000","OBJECT_TYPE":"PAYLOAD","RCS_SIZE":"LARGE","SITE":"AFWTR","GP_ID":"217372660","MEAN_MOTION_DDOT":"0.0000000000000","OBJECT_ID":"2022-105AV","MEAN_MOTION_DOT":"0.00006602","LAUNCH_DATE":"2022-08-31","OBJECT_NAME":"STARLINK-4560","MEAN_MOTION":"15.01234783","APOAPSIS":"564.881","ECCENTRICITY":"0.00025810","COUNTRY_CODE":"US","ARG_OF_PERICENTER":"136.1459","RA_OF_ASC_NODE":"194.1105","TIME_SYSTEM":"UTC","ELEMENT_SET_NO":"999","PERIAPSIS":"561.298","DECAY_DATE":null,"TLE_LINE2":"2 53691  97.6529 194.1105 0002581 136.1459 253.0766 15.01234783  1307","EPHEMERIS_TYPE":"0","SEMIMAJOR_AXIS":"6941.225","INCLINATION":"97.6529","CENTER_NAME":"EARTH","NORAD_CAT_ID":"53691","TLE_LINE1":"1 53691U 22105AV  22314.91667824  .00006602  00000-0  51841-3 0  9995","MEAN_ANOMALY":"253.0766","PERIOD":"95.921","MEAN_ELEMENT_THEORY":"SGP4","REF_FRAME":"TEME","EPOCH":"2022-11-10T22:00:00.999936"}];
